0 FENGYUN 1C DEB
1 30574U 99025ALQ 13281.68445859  .00001852  00000-0  20222-2 0  4719
2 30574 099.3718 188.0250 0257609 351.2302 068.5914 13.60490408330652
0 FENGYUN 1C DEB
1 30574U 99025ALQ 13282.71249481  .00001710  00000-0  18718-2 0  4728
2 30574 099.3721 189.0114 0257529 348.6299 063.6281 13.60496229330797
0 FENGYUN 1C DEB
1 30574U 99025ALQ 13285.30134159  .00001720  00000-0  18829-2 0  4736
2 30574 099.3723 191.4952 0257267 342.0721 143.2105 13.60506781331148
0 FENGYUN 1C DEB
1 30574U 99025ALQ 13286.68622897  .00002178  00000-0  23713-2 0  4746
2 30574 099.3725 192.8229 0257375 338.5265 086.1609 13.60510673331335
0 FENGYUN 1C DEB
1 30574U 99025ALQ 13288.24980649  .00002898  00000-0  31402-2 0  4756
2 30574 099.3725 194.3228 0257156 334.5457 184.3110 13.60519178331547
0 FENGYUN 1C DEB
1 30574U 99025ALQ 13290.23415322  .00002583  00000-0  28047-2 0  4762
2 30574 099.3723 196.2262 0256935 329.5429 183.3374 13.60528596331816
0 FENGYUN 1C DEB
1 30574U 99025ALQ 13292.28738723  .00002449  00000-0  26624-2 0  4773
2 30574 099.3724 198.1962 0256680 324.3415 159.8642 13.60537793332096
0 FENGYUN 1C DEB
1 30574U 99025ALQ 13293.67102984  .00002687  00000-0  29175-2 0  4780
2 30574 099.3747 199.5239 0256549 320.8391 096.8433 13.60545342332289
0 FENGYUN 1C DEB
1 30574U 99025ALQ 13294.69426705  .00002717  00000-0  29496-2 0  4794
2 30574 099.3722 200.5060 0256384 318.2389 068.6067 13.60548753332427
